STARLINK-6312           
1 56536U 23065AK  23343.49564480  .00000600  00000+0  59462-4 0  9991
2 56536  43.0055   5.6827 0001241 272.6789  87.3911 15.02537141 32947
STARLINK-6311           
1 56537U 23065AL  23343.42472597  .00002472  00000+0  19797-3 0  9997
2 56537  43.0045   6.0114 0000882 276.3761  83.6981 15.02540937 32934
STARLINK-6314           
1 56538U 23065AM  23343.39304545  .00001153  00000+0  10039-3 0  9996
2 56538  43.0052 339.7430 0001102 270.2202  89.8514 15.02542346 33239
STARLINK-6135           
1 56539U 23065AN  23343.48787085  .00001780  00000+0  14680-3 0  9993
2 56539  43.0055   5.6259 0001206 271.9766  88.0938 15.02539997 32945
STARLINK-6136           
1 56540U 23065AP  23343.49897350  .00001206  00000+0  10433-3 0  9998
2 56540  43.0050   5.7088 0000781 268.1641  91.9112 15.02536186 32944
STARLINK-6249           
1 56541U 23065AQ  23343.47899485 -.00000062  00000+0  10455-4 0  9993
2 56541  43.0060   5.5575 0001223 255.1243 104.9464 15.02530091 32945
STARLINK-6266           
1 56542U 23065AR  23343.48454301  .00003635  00000+0  28393-3 0  9996
2 56542  43.0042   5.5999 0001200 269.3996  90.6709 15.02546792 32941
STARLINK-6228           
1 56543U 23065AS  23343.47233488  .00001790  00000+0  14754-3 0  9993
2 56543  43.0046   5.5072 0000640 304.7048  55.3734 15.02541625 32943
STARLINK-6226           
1 56544U 23065AT  23343.48121501  .00001791  00000+0  14760-3 0  9995
2 56544  43.0047   5.5751 0001429 263.1066  96.9614 15.02540332 32945
STARLINK-6086           
1 56545U 23065AU  23343.46789474  .00002310  00000+0  18599-3 0  9995
2 56545  43.0048   5.4744 0000760 272.2701  87.8055 15.02541600 32949
STARLINK-6187           
1 56546U 23065AV  23343.40918953  .00001393  00000+0  11818-3 0  9993
2 56546  43.0050   5.8937 0001202 274.2059  85.8646 15.02536762 32937
STARLINK-6291           
1 56547U 23065AW  23343.46123136  .00001568  00000+0  13107-3 0  9998
2 56547  43.0053   5.4251 0001364 272.9778  87.0908 15.02542247 32949
STARLINK-6244           
1 56548U 23065AX  23343.47122326  .00001527  00000+0  12805-3 0  9999
2 56548  43.0056   5.4997 0001260 270.0591  90.0107 15.02540471 32949
STARLINK-6263           
1 56549U 23065AY  23343.45568512  .00002340  00000+0  18823-3 0  9999
2 56549  43.0051   5.3826 0000854 274.2214  85.8530 15.02542964 32942
STARLINK-6255           
1 56550U 23065AZ  23343.46456490  .00001419  00000+0  12006-3 0  9996
2 56550  43.0054   5.4501 0001126 274.3329  85.7385 15.02536635 32944
STARLINK-6199           
1 56551U 23065BA  23343.45124434  .00002358  00000+0  18954-3 0  9997
2 56551  43.0048   5.3483 0000696 260.0684 100.0080 15.02544222 32947
STARLINK-5802           
1 56552U 23065BB  23343.45790123 -.00000693  00000+0 -36225-4 0  9996
2 56552  43.0057   5.4000 0001092 269.8841  90.1876 15.02548268 32943
STARLINK-6074           
1 56553U 23065BC  23343.44791576  .00003490  00000+0  27322-3 0  9992
2 56553  43.0049   5.3245 0000874 277.6206  82.4537 15.02543298 32940
STARLINK-6295           
1 56554U 23065BD  23343.45234940  .00001278  00000+0  10961-3 0  9994
2 56554  43.0055   5.3577 0001330 267.1782  92.8909 15.02543794 32160
STARLINK-6252           
1 56555U 23065BE  23343.44122387  .00005595  00000+0  42855-3 0  9998
2 56555  43.0056   5.2740 0001118 278.9944  81.0771 15.02569128 32949
STARLINK-5302           
1 56556U 23065BF  23343.44460598  .00005044  00000+0  38828-3 0  9992
2 56556  43.0044   5.3003 0000749 266.2786  93.7971 15.02526374 32165
STARLINK-6265           
1 56557U 23065BG  23343.43792394  .00000959  00000+0  86046-4 0  9990
2 56557  43.0053   5.2461 0001243 266.2295  93.8405 15.02539426 32949
STARLINK-6286           
1 56558U 23065BH  23343.43570710  .00000891  00000+0  81010-4 0  9998
2 56558  43.0052   5.2310 0001043 274.2222  85.8501 15.02535378 32949
BEIDOU-3 G4             
1 56564U 23066A   23343.87945421 -.00000079  00000+0  00000+0 0  9993
2 56564   2.6019 288.4542 0004219 234.4087  32.1131  1.00273257  2160
STARLINK-30122          
1 56688U 23067A   23343.62195111  .00001218  00000+0  10520-3 0  9994
2 56688  43.0028  56.4334 0001276 275.2708  84.7989 15.02539678 32213
STARLINK-30129          
1 56689U 23067B   23343.61196169  .00004510  00000+0  34860-3 0  9999
2 56689  43.0038  56.3651 0001394 279.4321  80.6364 15.02546980 32142
STARLINK-30124          
1 56690U 23067C   23343.60863834  .00000805  00000+0  74642-4 0  9996
2 56690  43.0045  56.3509 0000877 263.6031  96.4711 15.02534516 32145
STARLINK-30087          
1 56691U 23067D   23343.59027118  .00029588  00000+0  15080-2 0  9990
2 56691  43.0020  48.6178 0011791  40.8523 319.3206 15.16186905 31384
STARLINK-30036          
1 56692U 23067E   23343.60197994  .00001147  00000+0  99978-4 0  9994
2 56692  43.0044  56.3185 0001045 277.8883  82.1840 15.02539339 31014
STARLINK-30067          
1 56693U 23067F   23343.59531570  .00001691  00000+0  14020-3 0  9993
2 56693  43.0050  56.2682 0001151 267.9749  92.0961 15.02541250 31291
STARLINK-30126          
1 56694U 23067G   23343.59864833  .00001251  00000+0  10762-3 0  9996
2 56694  43.0046  56.2925 0000916 264.5583  95.5155 15.02540476 31296
STARLINK-30121          
1 56695U 23067H   23343.59198327  .00001922  00000+0  15725-3 0  9994
2 56695  43.0031  56.2252 0001111 269.2530  90.8185 15.02542664 31298
STARLINK-30130          
1 56697U 23067K   23343.56535070  .00005817  00000+0  44520-3 0  9995
2 56697  43.0035  56.0385 0001569 273.0232  87.0431 15.02545645 31887
STARLINK-30068          
1 56698U 23067L   23343.57227135  .00002837  00000+0  22497-3 0  9995
2 56698  43.0038  43.1025 0000902 288.0586  72.0158 15.02541970 32032
STARLINK-30127          
1 56699U 23067M   23343.58865624  .00002309  00000+0  18585-3 0  9995
2 56699  43.0036  56.2184 0001423 278.7273  81.3409 15.02555046 31298
STARLINK-30053          
1 56700U 23067N   23343.58533075  .00001257  00000+0  10814-3 0  9998
2 56700  43.0039  56.1922 0001217 273.6830  86.3873 15.02536833 32145
STARLINK-30125          
1 56701U 23067P   23343.58200196  .00001706  00000+0  14134-3 0  9992
2 56701  43.0045  56.1676 0001127 279.1774  80.8941 15.02538126 32149
STARLINK-30117          
1 56702U 23067Q   23343.61860351 -.00002181  00000+0 -14637-3 0  9990
2 56702  43.0039  56.3760 0001396 274.3567  85.7116 15.02552621 32148
STARLINK-30132          
1 56703U 23067R   23343.57866968  .00002271  00000+0  18311-3 0  9997
2 56703  43.0036  56.1409 0001300 296.4043  63.6666 15.02539940 32147
STARLINK-30066          
1 56704U 23067S   23343.62517321  .00012081  00000+0  90693-3 0  9993
2 56704  43.0017  55.6187 0001049 274.0610  86.0113 15.02573817 32154
STARLINK-30080          
1 56705U 23067T   23343.56895047  .00001131  00000+0  98774-4 0  9994
2 56705  43.0038  43.1417 0000918 291.1952  68.8792 15.02540190 31449
STARLINK-30079          
1 56706U 23067U   23343.63849201  .00001634  00000+0  13600-3 0  9996
2 56706  43.0036  55.7283 0001073 272.2296  87.8423 15.02533603 32154
STARLINK-30070          
1 56707U 23067V   23343.64182075  .00001157  00000+0  10069-3 0  9993
2 56707  43.0048  55.7548 0001152 282.6028  77.4685 15.02536325 32157
STARLINK-30071          
1 56708U 23067W   23343.56201654  .00002109  00000+0  17109-3 0  9990
2 56708  43.0033  56.0138 0001276 280.9898  79.0801 15.02542904 32141
STARLINK-30085          
1 56709U 23067X   23343.63515739  .00000917  00000+0  82910-4 0  9999
2 56709  43.0030  55.7025 0001454 271.8832  88.1843 15.02537561 31896
ONEWEB-0561             
1 56710U 23068A   23343.76885609  .00000627  00000+0  12315-2 0  9990
2 56710  88.2878  93.6306 0001902 330.7279  29.3756 13.34330743 27868
ONEWEB-0668             
1 56711U 23068B   23343.91667824 -.00820290  00000+0 -23484+0 0  9999
2 56711  86.9181  57.5535 0012418 230.0750 239.4856 14.48236139  5674
ONEWEB-0676             
1 56712U 23068C   23343.91667824 -.00863599  00000+0 -27014+0 0  9992
2 56712  86.8923  57.5129 0012685 224.7655 296.2912 14.43604179  5590
ONEWEB-0677             
1 56713U 23068D   23343.36827474  .00000026  00000+0  25768-4 0  9996
2 56713  88.3264  91.7812 0001586  81.9461 278.1860 13.34765633 27992
ONEWEB-0678             
1 56714U 23068E   23343.71419394  .00000008  00000+0 -12922-4 0  9993
2 56714  87.9019  82.3964 0001748 110.8444 249.2873 13.15547199 28261
ONEWEB-0679             
1 56715U 23068F   23343.91667824 -.00872710  00000+0 -25737+0 0  9990
2 56715  86.9004  57.5504 0013484 224.0479 163.5050 14.46508095 30866
ONEWEB-0680             
1 56716U 23068G   23343.91667824 -.00439260  00000+0 -99813+0 0  9996
2 56716  87.9494  67.2138 0002513  99.5368 221.3333 13.28856268 30229
ONEWEB-0681             
1 56717U 23068H   23343.91667824 -.00040455  00000+0 -88798-1 0  9993
2 56717  87.9490  67.2012 0000776 330.5505 200.2885 13.28713856  5312
ONEWEB-0682             
1 56718U 23068J   23343.67696702  .00000026  00000+0  35058-4 0  9996
2 56718  87.8993  82.4525 0002097  86.7190 273.4180 13.15541999 28426
ONEWEB-0683             
1 56719U 23068K   23343.30619971 -.00000077  00000+0 -23926-3 0  9998
2 56719  87.9005  82.4969 0001910  94.5939 265.5410 13.15546845 28349
ONEWEB-0684             
1 56720U 23068L   23343.31324477 -.00000073  00000+0 -22667-3 0  9992
2 56720  87.9007  82.5707 0001898 121.6864 238.4452 13.15550429 28177
ONEWEB-0686             
1 56721U 23068M   23343.91667824 -.00877473  00000+0 -26093+0 0  9994
2 56721  86.8991  57.5000 0012293 227.7135 357.1469 14.46129511 30861
ONEWEB-0694             
1 56722U 23068N   23343.91667824 -.00733912  00000+0 -18666+0 0  9991
2 56722  86.9127  57.5238 0012558 223.5847 323.2240 14.53487014  5591
ONEWEB-0696             
1 56723U 23068P   23343.34578496  .00000079  00000+0  17643-3 0  9992
2 56723  87.8997  82.5367 0002305 123.8384 236.2966 13.15554882 28290
